[{"OBJECT_NAME":"STARLINK-31634","OBJECT_ID":"2024-057L","EPOCH":"2026-03-09T08:15:21.559392","MEAN_MOTION":15.27574143,"ECCENTRICITY":0.00016309,"INCLINATION":43.004,"RA_OF_ASC_NODE":189.2481,"ARG_OF_PERICENTER":278.7256,"MEAN_ANOMALY":81.3411,"EPHEMERIS_TYPE":0,"CLASSIFICATION_TYPE":"U","NORAD_CAT_ID":59330,"ELEMENT_SET_NO":999,"REV_AT_EPOCH":10978,"BSTAR":-5.895482e-6,"MEAN_MOTION_DOT":-4.24e-6,"MEAN_MOTION_DDOT":0},{"OBJECT_NAME":"NOAA 16 DEB","OBJECT_ID":"2000-055BK","EPOCH":"2026-03-09T02:17:10.174560","MEAN_MOTION":15.30191008,"ECCENTRICITY":0.00052528,"INCLINATION":98.9831,"RA_OF_ASC_NODE":305.6383,"ARG_OF_PERICENTER":26.64,"MEAN_ANOMALY":333.5104,"EPHEMERIS_TYPE":0,"CLASSIFICATION_TYPE":"U","NORAD_CAT_ID":41128,"ELEMENT_SET_NO":999,"REV_AT_EPOCH":53406,"BSTAR":0.017668961,"MEAN_MOTION_DOT":0.00549039,"MEAN_MOTION_DDOT":0}]
